[{"COMMENT":"GENERATED VIA SPACETRACK.ORG API","ORIGINATOR":"18 SPCS","NORAD_CAT_ID":"43477","OBJECT_NAME":"GRACE-FO 2","OBJECT_TYPE":"PAYLOAD","CLASSIFICATION_TYPE":"U","INTLDES":"18047B","EPOCH":"2023-05-14 13:50:24","EPOCH_MICROSECONDS":"49536","MEAN_MOTION":"15.25975022","ECCENTRICITY":"0.0015014","INCLINATION":"88.9901","RA_OF_ASC_NODE":"353.7286","ARG_OF_PERICENTER":"154.8011","MEAN_ANOMALY":"205.3973","EPHEMERIS_TYPE":"0","ELEMENT_SET_NO":"999","REV_AT_EPOCH":"27687","BSTAR":"0.00011237","MEAN_MOTION_DOT":"0.00002924","MEAN_MOTION_DDOT":"0","FILE":"3907744","TLE_LINE0":"0 GRACE-FO 2","TLE_LINE1":"1 43477U 18047B   23134.57666724  .00002924  00000-0  11237-3 0  9995","TLE_LINE2":"2 43477  88.9901 353.7286 0015014 154.8011 205.3973 15.25975022276874","OBJECT_ID":"2018-047B","OBJECT_NUMBER":"43477","SEMIMAJOR_AXIS":"6865.996","PERIOD":"94.366","APOGEE":"498.170","PERIGEE":"477.553","DECAYED":"0"},{"COMMENT":"GENERATED VIA SPACETRACK.ORG API","ORIGINATOR":"18 SPCS","NORAD_CAT_ID":"43477","OBJECT_NAME":"GRACE-FO 2","OBJECT_TYPE":"PAYLOAD","CLASSIFICATION_TYPE":"U","INTLDES":"18047B","EPOCH":"2023-05-14 20:08:07","EPOCH_MICROSECONDS":"715616","MEAN_MOTION":"15.25976898","ECCENTRICITY":"0.001506","INCLINATION":"88.9902","RA_OF_ASC_NODE":"353.693","ARG_OF_PERICENTER":"153.8826","MEAN_ANOMALY":"206.3185","EPHEMERIS_TYPE":"0","ELEMENT_SET_NO":"999","REV_AT_EPOCH":"27691","BSTAR":"0.00011411","MEAN_MOTION_DOT":"0.00002969","MEAN_MOTION_DDOT":"0","FILE":"3908005","TLE_LINE0":"0 GRACE-FO 2","TLE_LINE1":"1 43477U 18047B   23134.83897819  .00002969  00000-0  11411-3 0  9998","TLE_LINE2":"2 43477  88.9902 353.6930 0015060 153.8826 206.3185 15.25976898276917","OBJECT_ID":"2018-047B","OBJECT_NUMBER":"43477","SEMIMAJOR_AXIS":"6865.991","PERIOD":"94.366","APOGEE":"498.196","PERIGEE":"477.515","DECAYED":"0"},{"COMMENT":"GENERATED VIA SPACETRACK.ORG API","ORIGINATOR":"18 SPCS","NORAD_CAT_ID":"43477","OBJECT_NAME":"GRACE-FO 2","OBJECT_TYPE":"PAYLOAD","CLASSIFICATION_TYPE":"U","INTLDES":"18047B","EPOCH":"2023-05-15 04:00:17","EPOCH_MICROSECONDS":"286336","MEAN_MOTION":"15.25979006","ECCENTRICITY":"0.0015117","INCLINATION":"88.9901","RA_OF_ASC_NODE":"353.6486","ARG_OF_PERICENTER":"152.7142","MEAN_ANOMALY":"207.4904","EPHEMERIS_TYPE":"0","ELEMENT_SET_NO":"999","REV_AT_EPOCH":"27696","BSTAR":"0.00011498","MEAN_MOTION_DOT":"0.00002991","MEAN_MOTION_DDOT":"0","FILE":"3908116","TLE_LINE0":"0 GRACE-FO 2","TLE_LINE1":"1 43477U 18047B   23135.16686674  .00002991  00000-0  11498-3 0  9990","TLE_LINE2":"2 43477  88.9901 353.6486 0015117 152.7142 207.4904 15.25979006276964","OBJECT_ID":"2018-047B","OBJECT_NUMBER":"43477","SEMIMAJOR_AXIS":"6865.984","PERIOD":"94.366","APOGEE":"498.229","PERIGEE":"477.470","DECAYED":"0"},{"COMMENT":"GENERATED VIA SPACETRACK.ORG API","ORIGINATOR":"18 SPCS","NORAD_CAT_ID":"43477","OBJECT_NAME":"GRACE-FO 2","OBJECT_TYPE":"PAYLOAD","CLASSIFICATION_TYPE":"U","INTLDES":"18047B","EPOCH":"2023-05-15 11:52:26","EPOCH_MICROSECONDS":"819040","MEAN_MOTION":"15.25980996","ECCENTRICITY":"0.0015177","INCLINATION":"88.99","RA_OF_ASC_NODE":"353.6041","ARG_OF_PERICENTER":"151.5684","MEAN_ANOMALY":"208.6396","EPHEMERIS_TYPE":"0","ELEMENT_SET_NO":"999","REV_AT_EPOCH":"27701","BSTAR":"0.00011629","MEAN_MOTION_DOT":"0.00003025","MEAN_MOTION_DDOT":"0","FILE":"3908681","TLE_LINE0":"0 GRACE-FO 2","TLE_LINE1":"1 43477U 18047B   23135.49475485  .00003025  00000-0  11629-3 0  9997","TLE_LINE2":"2 43477  88.9900 353.6041 0015177 151.5684 208.6396 15.25980996277019","OBJECT_ID":"2018-047B","OBJECT_NUMBER":"43477","SEMIMAJOR_AXIS":"6865.978","PERIOD":"94.366","APOGEE":"498.264","PERIGEE":"477.423","DECAYED":"0"},{"COMMENT":"GENERATED VIA SPACETRACK.ORG API","ORIGINATOR":"18 SPCS","NORAD_CAT_ID":"43477","OBJECT_NAME":"GRACE-FO 2","OBJECT_TYPE":"PAYLOAD","CLASSIFICATION_TYPE":"U","INTLDES":"18047B","EPOCH":"2023-05-15 21:19:02","EPOCH_MICROSECONDS":"197632","MEAN_MOTION":"15.25983602","ECCENTRICITY":"0.0015241","INCLINATION":"88.99","RA_OF_ASC_NODE":"353.5507","ARG_OF_PERICENTER":"150.181","MEAN_ANOMALY":"210.0311","EPHEMERIS_TYPE":"0","ELEMENT_SET_NO":"999","REV_AT_EPOCH":"27707","BSTAR":"0.0001178","MEAN_MOTION_DOT":"0.00003064","MEAN_MOTION_DDOT":"0","FILE":"3908892","TLE_LINE0":"0 GRACE-FO 2","TLE_LINE1":"1 43477U 18047B   23135.88821988  .00003064  00000-0  11780-3 0  9994","TLE_LINE2":"2 43477  88.9900 353.5507 0015241 150.1810 210.0311 15.25983602277070","OBJECT_ID":"2018-047B","OBJECT_NUMBER":"43477","SEMIMAJOR_AXIS":"6865.970","PERIOD":"94.365","APOGEE":"498.300","PERIGEE":"477.371","DECAYED":"0"},{"COMMENT":"GENERATED VIA SPACETRACK.ORG API","ORIGINATOR":"18 SPCS","NORAD_CAT_ID":"43477","OBJECT_NAME":"GRACE-FO 2","OBJECT_TYPE":"PAYLOAD","CLASSIFICATION_TYPE":"U","INTLDES":"18047B","EPOCH":"2023-05-16 13:03:21","EPOCH_MICROSECONDS":"56544","MEAN_MOTION":"15.25986935","ECCENTRICITY":"0.0015354","INCLINATION":"88.9897","RA_OF_ASC_NODE":"353.462","ARG_OF_PERICENTER":"147.9755","MEAN_ANOMALY":"212.243","EPHEMERIS_TYPE":"0","ELEMENT_SET_NO":"999","REV_AT_EPOCH":"27717","BSTAR":"0.00010926","MEAN_MOTION_DOT":"0.00002845","MEAN_MOTION_DDOT":"0","FILE":"3909269","TLE_LINE0":"0 GRACE-FO 2","TLE_LINE1":"1 43477U 18047B   23136.54399371  .00002845  00000-0  10926-3 0  9991","TLE_LINE2":"2 43477  88.9897 353.4620 0015354 147.9755 212.2430 15.25986935277176","OBJECT_ID":"2018-047B","OBJECT_NUMBER":"43477","SEMIMAJOR_AXIS":"6865.960","PERIOD":"94.365","APOGEE":"498.367","PERIGEE":"477.283","DECAYED":"0"},{"COMMENT":"GENERATED VIA SPACETRACK.ORG API","ORIGINATOR":"18 SPCS","NORAD_CAT_ID":"43477","OBJECT_NAME":"GRACE-FO 2","OBJECT_TYPE":"PAYLOAD","CLASSIFICATION_TYPE":"U","INTLDES":"18047B","EPOCH":"2023-05-16 13:03:21","EPOCH_MICROSECONDS":"56544","MEAN_MOTION":"15.25986935","ECCENTRICITY":"0.0015354","INCLINATION":"88.9897","RA_OF_ASC_NODE":"353.462","ARG_OF_PERICENTER":"147.9755","MEAN_ANOMALY":"212.243","EPHEMERIS_TYPE":"0","ELEMENT_SET_NO":"999","REV_AT_EPOCH":"27717","BSTAR":"0.00010926","MEAN_MOTION_DOT":"0.00002845","MEAN_MOTION_DDOT":"0","FILE":"3909472","TLE_LINE0":"0 GRACE-FO 2","TLE_LINE1":"1 43477U 18047B   23136.54399371  .00002845  00000-0  10926-3 0  9991","TLE_LINE2":"2 43477  88.9897 353.4620 0015354 147.9755 212.2430 15.25986935277176","OBJECT_ID":"2018-047B","OBJECT_NUMBER":"43477","SEMIMAJOR_AXIS":"6865.960","PERIOD":"94.365","APOGEE":"498.367","PERIGEE":"477.283","DECAYED":"0"},{"COMMENT":"GENERATED VIA SPACETRACK.ORG API","ORIGINATOR":"18 SPCS","NORAD_CAT_ID":"43477","OBJECT_NAME":"GRACE-FO 2","OBJECT_TYPE":"PAYLOAD","CLASSIFICATION_TYPE":"U","INTLDES":"18047B","EPOCH":"2023-05-16 20:55:30","EPOCH_MICROSECONDS":"446688","MEAN_MOTION":"15.25988343","ECCENTRICITY":"0.0015395","INCLINATION":"88.9896","RA_OF_ASC_NODE":"353.4174","ARG_OF_PERICENTER":"146.8205","MEAN_ANOMALY":"213.4012","EPHEMERIS_TYPE":"0","ELEMENT_SET_NO":"999","REV_AT_EPOCH":"27722","BSTAR":"0.00010314","MEAN_MOTION_DOT":"0.00002688","MEAN_MOTION_DDOT":"0","FILE":"3909742","TLE_LINE0":"0 GRACE-FO 2","TLE_LINE1":"1 43477U 18047B   23136.87188017  .00002688  00000-0  10314-3 0  9996","TLE_LINE2":"2 43477  88.9896 353.4174 0015395 146.8205 213.4012 15.25988343277222","OBJECT_ID":"2018-047B","OBJECT_NUMBER":"43477","SEMIMAJOR_AXIS":"6865.956","PERIOD":"94.365","APOGEE":"498.391","PERIGEE":"477.251","DECAYED":"0"},{"COMMENT":"GENERATED VIA SPACETRACK.ORG API","ORIGINATOR":"18 SPCS","NORAD_CAT_ID":"43477","OBJECT_NAME":"GRACE-FO 2","OBJECT_TYPE":"PAYLOAD","CLASSIFICATION_TYPE":"U","INTLDES":"18047B","EPOCH":"2023-05-17 18:57:32","EPOCH_MICROSECONDS":"542272","MEAN_MOTION":"15.25992983","ECCENTRICITY":"0.0015543","INCLINATION":"88.9894","RA_OF_ASC_NODE":"353.2929","ARG_OF_PERICENTER":"143.7489","MEAN_ANOMALY":"216.4816","EPHEMERIS_TYPE":"0","ELEMENT_SET_NO":"999","REV_AT_EPOCH":"27736","BSTAR":"0.000096881","MEAN_MOTION_DOT":"0.00002527","MEAN_MOTION_DDOT":"0","FILE":"3910347","TLE_LINE0":"0 GRACE-FO 2","TLE_LINE1":"1 43477U 18047B   23137.78995998  .00002527  00000-0  96881-4 0  9997","TLE_LINE2":"2 43477  88.9894 353.2929 0015543 143.7489 216.4816 15.25992983277366","OBJECT_ID":"2018-047B","OBJECT_NUMBER":"43477","SEMIMAJOR_AXIS":"6865.942","PERIOD":"94.365","APOGEE":"498.479","PERIGEE":"477.136","DECAYED":"0"},{"COMMENT":"GENERATED VIA SPACETRACK.ORG API","ORIGINATOR":"18 SPCS","NORAD_CAT_ID":"43477","OBJECT_NAME":"GRACE-FO 2","OBJECT_TYPE":"PAYLOAD","CLASSIFICATION_TYPE":"U","INTLDES":"18047B","EPOCH":"2023-05-17 20:31:58","EPOCH_MICROSECONDS":"396800","MEAN_MOTION":"15.25993284","ECCENTRICITY":"0.0015555","INCLINATION":"88.9893","RA_OF_ASC_NODE":"353.284","ARG_OF_PERICENTER":"143.5201","MEAN_ANOMALY":"216.7111","EPHEMERIS_TYPE":"0","ELEMENT_SET_NO":"999","REV_AT_EPOCH":"27737","BSTAR":"0.000094874","MEAN_MOTION_DOT":"0.00002475","MEAN_MOTION_DDOT":"0","FILE":"3910633","TLE_LINE0":"0 GRACE-FO 2","TLE_LINE1":"1 43477U 18047B   23137.85553700  .00002475  00000-0  94874-4 0  9998","TLE_LINE2":"2 43477  88.9893 353.2840 0015555 143.5201 216.7111 15.25993284277377","OBJECT_ID":"2018-047B","OBJECT_NUMBER":"43477","SEMIMAJOR_AXIS":"6865.941","PERIOD":"94.365","APOGEE":"498.486","PERIGEE":"477.126","DECAYED":"0"}]